{
  "type": "FeatureCollection",
  "features": [
    {
      "type": "Feature",
      "properties": {
        "norad_id": 36036,
        "name": "SMOS",
        "group": "resource",
        "lat": 78.45542424240966,
        "lon": 138.3959927114947,
        "alt_km": 751.2294782101781,
        "timestamp": "2025-12-26T03:50:11.744495+00:00",
        "meta_object_name": "SMOS",
        "meta_object_id": "2009-059A",
        "meta_epoch": "2025-12-25T12:26:43.814688",
        "meta_mean_motion": 14.39752409,
        "meta_eccentricity": 0.0001048,
        "meta_inclination": 98.4382,
        "meta_ra_of_asc_node": 184.3778,
        "meta_arg_of_pericenter": 83.5016,
        "meta_mean_anomaly": 276.6292,
        "meta_ephemeris_type": 0,
        "meta_classification_type": "U",
        "meta_norad_cat_id": 36036,
        "meta_element_set_no": 999,
        "meta_rev_at_epoch": 84846,
        "meta_bstar": 0.00014069,
        "meta_mean_motion_dot": 3.97e-06,
        "meta_mean_motion_ddot": 0,
        "tle_line1": "1 36036U 09059A   25359.51856267  .00000397  00000+0  14069-3 0  9996",
        "tle_line2": "2 36036  98.4382 184.3778 0001048  83.5016 276.6292 14.39752409848466"
      },
      "geometry": {
        "type": "Point",
        "coordinates": [
          138.3959927114947,
          78.45542424240966
        ]
      }
    },
    {
      "type": "Feature",
      "properties": {
        "norad_id": 36110,
        "name": "YAOGAN-7",
        "group": "resource",
        "lat": -59.16570509040371,
        "lon": -104.4533421821434,
        "alt_km": 636.3815616127213,
        "timestamp": "2025-12-26T03:50:11.744505+00:00",
        "meta_object_name": "YAOGAN-7",
        "meta_object_id": "2009-069A",
        "meta_epoch": "2025-12-25T15:06:27.948096",
        "meta_mean_motion": 14.77750828,
        "meta_eccentricity": 0.0023473,
        "meta_inclination": 98.0293,
        "meta_ra_of_asc_node": 241.34,
        "meta_arg_of_pericenter": 237.3652,
        "meta_mean_anomaly": 122.5293,
        "meta_ephemeris_type": 0,
        "meta_classification_type": "U",
        "meta_norad_cat_id": 36110,
        "meta_element_set_no": 999,
        "meta_rev_at_epoch": 86399,
        "meta_bstar": 0.00010215,
        "meta_mean_motion_dot": 6.82e-06,
        "meta_mean_motion_ddot": 0,
        "tle_line1": "1 36110U 09069A   25359.62949014  .00000682  00000+0  10215-3 0  9991",
        "tle_line2": "2 36110  98.0293 241.3400 0023473 237.3652 122.5293 14.77750828863993"
      },
      "geometry": {
        "type": "Point",
        "coordinates": [
          -104.4533421821434,
          -59.16570509040371
        ]
      }
    },
    {
      "type": "Feature",
      "properties": {
        "norad_id": 36605,
        "name": "TANDEM-X",
        "group": "resource",
        "lat": 22.10839741149605,
        "lon": 2.2987240639477857,
        "alt_km": 507.76761709301627,
        "timestamp": "2025-12-26T03:50:11.744517+00:00",
        "meta_object_name": "TANDEM-X",
        "meta_object_id": "2010-030A",
        "meta_epoch": "2025-12-25T13:30:40.340160",
        "meta_mean_motion": 15.19154497,
        "meta_eccentricity": 0.0001775,
        "meta_inclination": 97.4454,
        "meta_ra_of_asc_node": 4.7557,
        "meta_arg_of_pericenter": 93.2666,
        "meta_mean_anomaly": 266.8771,
        "meta_ephemeris_type": 0,
        "meta_classification_type": "U",
        "meta_norad_cat_id": 36605,
        "meta_element_set_no": 999,
        "meta_rev_at_epoch": 86028,
        "meta_bstar": 5.683e-05,
        "meta_mean_motion_dot": 1.127e-05,
        "meta_mean_motion_ddot": 0,
        "tle_line1": "1 36605U 10030A   25359.56296690  .00001127  00000+0  56830-4 0  9997",
        "tle_line2": "2 36605  97.4454   4.7557 0001775  93.2666 266.8771 15.19154497860282"
      },
      "geometry": {
        "type": "Point",
        "coordinates": [
          2.2987240639477857,
          22.10839741149605
        ]
      }
    },
    {
      "type": "Feature",
      "properties": {
        "norad_id": 36795,
        "name": "CARTOSAT-2B",
        "group": "resource",
        "lat": -80.98015089830673,
        "lon": 108.25211320485998,
        "alt_km": 645.3237703004279,
        "timestamp": "2025-12-26T03:50:11.744527+00:00",
        "meta_object_name": "CARTOSAT-2B",
        "meta_object_id": "2010-035A",
        "meta_epoch": "2025-12-25T20:06:08.654688",
        "meta_mean_motion": 14.7874398,
        "meta_eccentricity": 0.0012529,
        "meta_inclination": 97.7831,
        "meta_ra_of_asc_node": 48.4406,
        "meta_arg_of_pericenter": 37.8432,
        "meta_mean_anomaly": 322.3658,
        "meta_ephemeris_type": 0,
        "meta_classification_type": "U",
        "meta_norad_cat_id": 36795,
        "meta_element_set_no": 999,
        "meta_rev_at_epoch": 83423,
        "meta_bstar": 0.0001298,
        "meta_mean_motion_dot": 9.04e-06,
        "meta_mean_motion_ddot": 0,
        "tle_line1": "1 36795U 10035A   25359.83760017  .00000904  00000+0  12980-3 0  9990",
        "tle_line2": "2 36795  97.7831  48.4406 0012529  37.8432 322.3658 14.78743980834239"
      },
      "geometry": {
        "type": "Point",
        "coordinates": [
          108.25211320485998,
          -80.98015089830673
        ]
      }
    },
    {
      "type": "Feature",
      "properties": {
        "norad_id": 36834,
        "name": "YAOGAN-10",
        "group": "resource",
        "lat": -77.63109859497757,
        "lon": 59.24585434875212,
        "alt_km": 622.908766195148,
        "timestamp": "2025-12-26T03:50:11.744538+00:00",
        "meta_object_name": "YAOGAN-10",
        "meta_object_id": "2010-038A",
        "meta_epoch": "2025-12-25T20:34:10.491168",
        "meta_mean_motion": 14.84655937,
        "meta_eccentricity": 0.0001398,
        "meta_inclination": 97.9134,
        "meta_ra_of_asc_node": 19.579,
        "meta_arg_of_pericenter": 78.5502,
        "meta_mean_anomaly": 23.6466,
        "meta_ephemeris_type": 0,
        "meta_classification_type": "U",
        "meta_norad_cat_id": 36834,
        "meta_element_set_no": 999,
        "meta_rev_at_epoch": 83148,
        "meta_bstar": 0.0001776,
        "meta_mean_motion_dot": 1.448e-05,
        "meta_mean_motion_ddot": 0,
        "tle_line1": "1 36834U 10038A   25359.85706587  .00001448  00000+0  17760-3 0  9996",
        "tle_line2": "2 36834  97.9134  19.5790 0001398  78.5502  23.6466 14.84655937831481"
      },
      "geometry": {
        "type": "Point",
        "coordinates": [
          59.24585434875212,
          -77.63109859497757
        ]
      }
    },
    {
      "type": "Feature",
      "properties": {
        "norad_id": 37216,
        "name": "COSMO-SKYMED 4",
        "group": "resource",
        "lat": 79.55568884655406,
        "lon": 132.56847331317607,
        "alt_km": 614.1574148641648,
        "timestamp": "2025-12-26T03:50:11.744548+00:00",
        "meta_object_name": "COSMO-SKYMED 4",
        "meta_object_id": "2010-060A",
        "meta_epoch": "2025-12-25T19:21:42.456096",
        "meta_mean_motion": 14.82162518,
        "meta_eccentricity": 0.0001394,
        "meta_inclination": 97.8806,
        "meta_ra_of_asc_node": 180.9332,
        "meta_arg_of_pericenter": 82.7853,
        "meta_mean_anomaly": 277.3518,
        "meta_ephemeris_type": 0,
        "meta_classification_type": "U",
        "meta_norad_cat_id": 37216,
        "meta_element_set_no": 999,
        "meta_rev_at_epoch": 81888,
        "meta_bstar": 0.00017259,
        "meta_mean_motion_dot": 1.322e-05,
        "meta_mean_motion_ddot": 0,
        "tle_line1": "1 37216U 10060A   25359.80674139  .00001322  00000+0  17259-3 0  9992",
        "tle_line2": "2 37216  97.8806 180.9332 0001394  82.7853 277.3518 14.82162518818889"
      },
      "geometry": {
        "type": "Point",
        "coordinates": [
          132.56847331317607,
          79.55568884655406
        ]
      }
    },
    {
      "type": "Feature",
      "properties": {
        "norad_id": 37387,
        "name": "RESOURCESAT-2",
        "group": "resource",
        "lat": 7.399999497884054,
        "lon": 62.49944717693825,
        "alt_km": 817.6803648926461,
        "timestamp": "2025-12-26T03:50:11.744560+00:00",
        "meta_object_name": "RESOURCESAT-2",
        "meta_object_id": "2011-015A",
        "meta_epoch": "2025-12-25T19:21:20.093184",
        "meta_mean_motion": 14.21602265,
        "meta_eccentricity": 0.0005779,
        "meta_inclination": 98.7859,
        "meta_ra_of_asc_node": 63.2987,
        "meta_arg_of_pericenter": 6.7285,
        "meta_mean_anomaly": 353.3968,
        "meta_ephemeris_type": 0,
        "meta_classification_type": "U",
        "meta_norad_cat_id": 37387,
        "meta_element_set_no": 999,
        "meta_rev_at_epoch": 76154,
        "meta_bstar": 8.2493e-05,
        "meta_mean_motion_dot": 1.36e-06,
        "meta_mean_motion_ddot": 0,
        "tle_line1": "1 37387U 11015A   25359.80648256  .00000136  00000+0  82493-4 0  9998",
        "tle_line2": "2 37387  98.7859  63.2987 0005779   6.7285 353.3968 14.21602265761546"
      },
      "geometry": {
        "type": "Point",
        "coordinates": [
          62.49944717693825,
          7.399999497884054
        ]
      }
    }
  ]
}